[
  {
    "OBJECT_NAME": "STARLINK-1622",
    "OBJECT_ID": "20057M",
    "EPOCH": "2025-11-11T08:00:03.000384",
    "MEAN_MOTION": 15.35005155,
    "ECCENTRICITY": 0.0005504,
    "INCLINATION": 53.0319,
    "RA_OF_ASC_NODE": 70.7289,
    "ARG_OF_PERICENTER": 168.8404,
    "MEAN_ANOMALY": 64.7645,
    "EPHEMERIS_TYPE": 0,
    "CLASSIFICATION_TYPE": "U",
    "NORAD_CAT_ID": 46128,
    "ELEMENT_SET_NO": 999,
    "REV_AT_EPOCH": 587,
    "BSTAR": 0.0041976999999999995,
    "MEAN_MOTION_DOT": 0.00147121,
    "MEAN_MOTION_DDOT": 0.0,
    "TLE_LINE1": "1 46128U 20057M   25315.33336806  .00147121  00000+0  41977-2 0  9998",
    "TLE_LINE2": "2 46128  53.0319  70.7289 0005504 168.8404  64.7645 15.35005155  5874",
    "COMMENT": "Grouped by shell and plane from TLE"
  },
  {
    "OBJECT_NAME": "STARLINK-1667",
    "OBJECT_ID": "20057AQ",
    "EPOCH": "2025-11-11T08:00:03.000384",
    "MEAN_MOTION": 15.34623029,
    "ECCENTRICITY": 0.0004008,
    "INCLINATION": 53.0348,
    "RA_OF_ASC_NODE": 71.0321,
    "ARG_OF_PERICENTER": 177.1304,
    "MEAN_ANOMALY": 257.0456,
    "EPHEMERIS_TYPE": 0,
    "CLASSIFICATION_TYPE": "U",
    "NORAD_CAT_ID": 46155,
    "ELEMENT_SET_NO": 999,
    "REV_AT_EPOCH": 567,
    "BSTAR": 0.0042648,
    "MEAN_MOTION_DOT": 0.00147657,
    "MEAN_MOTION_DDOT": 0.0,
    "TLE_LINE1": "1 46155U 20057AQ  25315.33336806  .00147657  00000+0  42648-2 0  9998",
    "TLE_LINE2": "2 46155  53.0348  71.0321 0004008 177.1304 257.0456 15.34623029  5677",
    "COMMENT": "Grouped by shell and plane from TLE"
  },
  {
    "OBJECT_NAME": "STARLINK-1587",
    "OBJECT_ID": "20057AS",
    "EPOCH": "2025-11-11T08:00:03.000384",
    "MEAN_MOTION": 15.43932425,
    "ECCENTRICITY": 0.0008376,
    "INCLINATION": 53.0507,
    "RA_OF_ASC_NODE": 76.4796,
    "ARG_OF_PERICENTER": 266.7527,
    "MEAN_ANOMALY": 36.0385,
    "EPHEMERIS_TYPE": 0,
    "CLASSIFICATION_TYPE": "U",
    "NORAD_CAT_ID": 46157,
    "ELEMENT_SET_NO": 999,
    "REV_AT_EPOCH": 583,
    "BSTAR": 0.0038318999999999996,
    "MEAN_MOTION_DOT": 0.00180985,
    "MEAN_MOTION_DDOT": 0.0,
    "TLE_LINE1": "1 46157U 20057AS  25315.33336806  .00180985  00000+0  38319-2 0  9991",
    "TLE_LINE2": "2 46157  53.0507  76.4796 0008376 266.7527  36.0385 15.43932425  5832",
    "COMMENT": "Grouped by shell and plane from TLE"
  },
  {
    "OBJECT_NAME": "STARLINK-1627",
    "OBJECT_ID": "20057BD",
    "EPOCH": "2025-11-11T08:00:03.000384",
    "MEAN_MOTION": 15.35909739,
    "ECCENTRICITY": 0.0004437,
    "INCLINATION": 53.0542,
    "RA_OF_ASC_NODE": 73.7682,
    "ARG_OF_PERICENTER": 322.6054,
    "MEAN_ANOMALY": 356.9954,
    "EPHEMERIS_TYPE": 0,
    "CLASSIFICATION_TYPE": "U",
    "NORAD_CAT_ID": 46168,
    "ELEMENT_SET_NO": 999,
    "REV_AT_EPOCH": 580,
    "BSTAR": 0.0045024999999999996,
    "MEAN_MOTION_DOT": 0.00162786,
    "MEAN_MOTION_DDOT": 0.0,
    "TLE_LINE1": "1 46168U 20057BD  25315.33336806  .00162786  00000+0  45025-2 0  9994",
    "TLE_LINE2": "2 46168  53.0542  73.7682 0004437 322.6054 356.9954 15.35909739  5804",
    "COMMENT": "Grouped by shell and plane from TLE"
  },
  {
    "OBJECT_NAME": "STARLINK-3982",
    "OBJECT_ID": "22052S",
    "EPOCH": "2025-11-11T06:48:37.024704",
    "MEAN_MOTION": 15.38280443,
    "ECCENTRICITY": 0.0001422,
    "INCLINATION": 53.2123,
    "RA_OF_ASC_NODE": 70.4381,
    "ARG_OF_PERICENTER": 273.0498,
    "MEAN_ANOMALY": 87.0344,
    "EPHEMERIS_TYPE": 0,
    "CLASSIFICATION_TYPE": "U",
    "NORAD_CAT_ID": 52614,
    "ELEMENT_SET_NO": 999,
    "REV_AT_EPOCH": 19326,
    "BSTAR": 0.0012629000000000002,
    "MEAN_MOTION_DOT": 0.00048259,
    "MEAN_MOTION_DDOT": 0.0,
    "TLE_LINE1": "1 52614U 22052S   25315.28376186  .00048259  00000+0  12629-2 0  9995",
    "TLE_LINE2": "2 52614  53.2123  70.4381 0001422 273.0498  87.0344 15.38280443193266",
    "COMMENT": "Grouped by shell and plane from TLE"
  },
  {
    "OBJECT_NAME": "STARLINK-30407",
    "OBJECT_ID": "23138R",
    "EPOCH": "2025-11-11T07:42:11.631744",
    "MEAN_MOTION": 15.27581799,
    "ECCENTRICITY": 0.0001251,
    "INCLINATION": 43.0031,
    "RA_OF_ASC_NODE": 77.2675,
    "ARG_OF_PERICENTER": 280.9995,
    "MEAN_ANOMALY": 79.0715,
    "EPHEMERIS_TYPE": 0,
    "CLASSIFICATION_TYPE": "U",
    "NORAD_CAT_ID": 57823,
    "ELEMENT_SET_NO": 999,
    "REV_AT_EPOCH": 12186,
    "BSTAR": 3.8391e-05,
    "MEAN_MOTION_DOT": 7.94e-06,
    "MEAN_MOTION_DDOT": 0.0,
    "TLE_LINE1": "1 57823U 23138R   25315.32096796  .00000794  00000+0  38391-4 0  9997",
    "TLE_LINE2": "2 57823  43.0031  77.2675 0001251 280.9995  79.0715 15.27581799121864",
    "COMMENT": "Grouped by shell and plane from TLE"
  },
  {
    "OBJECT_NAME": "STARLINK-31393",
    "OBJECT_ID": "24049X",
    "EPOCH": "2025-11-11T01:47:46.328064",
    "MEAN_MOTION": 15.27583929,
    "ECCENTRICITY": 0.0001891,
    "INCLINATION": 43.0054,
    "RA_OF_ASC_NODE": 78.8432,
    "ARG_OF_PERICENTER": 265.4914,
    "MEAN_ANOMALY": 94.5722,
    "EPHEMERIS_TYPE": 0,
    "CLASSIFICATION_TYPE": "U",
    "NORAD_CAT_ID": 59252,
    "ELEMENT_SET_NO": 999,
    "REV_AT_EPOCH": 9443,
    "BSTAR": 6.8748e-05,
    "MEAN_MOTION_DOT": 1.63e-05,
    "MEAN_MOTION_DDOT": 0.0,
    "TLE_LINE1": "1 59252U 24049X   25315.07484176  .00001630  00000+0  68748-4 0  9991",
    "TLE_LINE2": "2 59252  43.0054  78.8432 0001891 265.4914  94.5722 15.27583929 94433",
    "COMMENT": "Grouped by shell and plane from TLE"
  },
  {
    "OBJECT_NAME": "STARLINK-31443",
    "OBJECT_ID": "24062V",
    "EPOCH": "2025-11-10T17:46:48.940608",
    "MEAN_MOTION": 15.29363575,
    "ECCENTRICITY": 8.95e-05,
    "INCLINATION": 53.1595,
    "RA_OF_ASC_NODE": 74.9289,
    "ARG_OF_PERICENTER": 100.847,
    "MEAN_ANOMALY": 259.2631,
    "EPHEMERIS_TYPE": 0,
    "CLASSIFICATION_TYPE": "U",
    "NORAD_CAT_ID": 59393,
    "ELEMENT_SET_NO": 999,
    "REV_AT_EPOCH": 9164,
    "BSTAR": 0.00046685,
    "MEAN_MOTION_DOT": 0.00013142,
    "MEAN_MOTION_DDOT": 0.0,
    "TLE_LINE1": "1 59393U 24062V   25314.74084422  .00013142  00000+0  46685-3 0  9991",
    "TLE_LINE2": "2 59393  53.1595  74.9289 0000895 100.8470 259.2631 15.29363575 91644",
    "COMMENT": "Grouped by shell and plane from TLE"
  },
  {
    "OBJECT_NAME": "STARLINK-31781",
    "OBJECT_ID": "24082B",
    "EPOCH": "2025-11-11T00:40:11.827488",
    "MEAN_MOTION": 15.27579841,
    "ECCENTRICITY": 0.00012,
    "INCLINATION": 42.9994,
    "RA_OF_ASC_NODE": 75.8355,
    "ARG_OF_PERICENTER": 279.687,
    "MEAN_ANOMALY": 80.3846,
    "EPHEMERIS_TYPE": 0,
    "CLASSIFICATION_TYPE": "U",
    "NORAD_CAT_ID": 59632,
    "ELEMENT_SET_NO": 999,
    "REV_AT_EPOCH": 8686,
    "BSTAR": 4.4167e-06,
    "MEAN_MOTION_DOT": -1.4e-06,
    "MEAN_MOTION_DDOT": 0.0,
    "TLE_LINE1": "1 59632U 24082B   25315.02791467 -.00000140  00000+0  44167-5 0  9995",
    "TLE_LINE2": "2 59632  42.9994  75.8355 0001200 279.6870  80.3846 15.27579841 86865",
    "COMMENT": "Grouped by shell and plane from TLE"
  },
  {
    "OBJECT_NAME": "STARLINK-31974",
    "OBJECT_ID": "24100A",
    "EPOCH": "2025-11-11T07:39:13.016160",
    "MEAN_MOTION": 15.27579552,
    "ECCENTRICITY": 8.91e-05,
    "INCLINATION": 43.0036,
    "RA_OF_ASC_NODE": 73.8904,
    "ARG_OF_PERICENTER": 267.2689,
    "MEAN_ANOMALY": 92.8061,
    "EPHEMERIS_TYPE": 0,
    "CLASSIFICATION_TYPE": "U",
    "NORAD_CAT_ID": 59885,
    "ELEMENT_SET_NO": 999,
    "REV_AT_EPOCH": 8295,
    "BSTAR": 7.3717e-05,
    "MEAN_MOTION_DOT": 1.767e-05,
    "MEAN_MOTION_DDOT": 0.0,
    "TLE_LINE1": "1 59885U 24100A   25315.31890065  .00001767  00000+0  73717-4 0  9999",
    "TLE_LINE2": "2 59885  43.0036  73.8904 0000891 267.2689  92.8061 15.27579552 82950",
    "COMMENT": "Grouped by shell and plane from TLE"
  },
  {
    "OBJECT_NAME": "STARLINK-31975",
    "OBJECT_ID": "24100B",
    "EPOCH": "2025-11-11T07:42:55.182528",
    "MEAN_MOTION": 15.27586146,
    "ECCENTRICITY": 6.91e-05,
    "INCLINATION": 42.9997,
    "RA_OF_ASC_NODE": 73.9096,
    "ARG_OF_PERICENTER": 330.7843,
    "MEAN_ANOMALY": 29.2969,
    "EPHEMERIS_TYPE": 0,
    "CLASSIFICATION_TYPE": "U",
    "NORAD_CAT_ID": 59886,
    "ELEMENT_SET_NO": 999,
    "REV_AT_EPOCH": 8305,
    "BSTAR": 2.1918000000000003e-05,
    "MEAN_MOTION_DOT": 3.41e-06,
    "MEAN_MOTION_DDOT": 0.0,
    "TLE_LINE1": "1 59886U 24100B   25315.32147202  .00000341  00000+0  21918-4 0  9992",
    "TLE_LINE2": "2 59886  42.9997  73.9096 0000691 330.7843  29.2969 15.27586146 83054",
    "COMMENT": "Grouped by shell and plane from TLE"
  },
  {
    "OBJECT_NAME": "STARLINK-31965",
    "OBJECT_ID": "24100D",
    "EPOCH": "2025-11-10T14:43:50.598912",
    "MEAN_MOTION": 15.27587061,
    "ECCENTRICITY": 0.0001716,
    "INCLINATION": 43.0046,
    "RA_OF_ASC_NODE": 78.056,
    "ARG_OF_PERICENTER": 267.2946,
    "MEAN_ANOMALY": 92.7709,
    "EPHEMERIS_TYPE": 0,
    "CLASSIFICATION_TYPE": "U",
    "NORAD_CAT_ID": 59888,
    "ELEMENT_SET_NO": 999,
    "REV_AT_EPOCH": 8284,
    "BSTAR": 0.0014838000000000002,
    "MEAN_MOTION_DOT": 0.00040804,
    "MEAN_MOTION_DDOT": 0.0,
    "TLE_LINE1": "1 59888U 24100D   25314.61378008  .00040804  00000+0  14838-2 0  9994",
    "TLE_LINE2": "2 59888  43.0046  78.0560 0001716 267.2946  92.7709 15.27587061 82842",
    "COMMENT": "Grouped by shell and plane from TLE"
  },
  {
    "OBJECT_NAME": "STARLINK-31969",
    "OBJECT_ID": "24100E",
    "EPOCH": "2025-11-11T07:36:12.585312",
    "MEAN_MOTION": 15.27584191,
    "ECCENTRICITY": 0.0001093,
    "INCLINATION": 43.0019,
    "RA_OF_ASC_NODE": 70.4141,
    "ARG_OF_PERICENTER": 252.777,
    "MEAN_ANOMALY": 107.2962,
    "EPHEMERIS_TYPE": 0,
    "CLASSIFICATION_TYPE": "U",
    "NORAD_CAT_ID": 59889,
    "ELEMENT_SET_NO": 999,
    "REV_AT_EPOCH": 8309,
    "BSTAR": 0.00011274000000000001,
    "MEAN_MOTION_DOT": 2.842e-05,
    "MEAN_MOTION_DDOT": 0.0,
    "TLE_LINE1": "1 59889U 24100E   25315.31681233  .00002842  00000+0  11274-3 0  9992",
    "TLE_LINE2": "2 59889  43.0019  70.4141 0001093 252.7770 107.2962 15.27584191 83098",
    "COMMENT": "Grouped by shell and plane from TLE"
  }
]